[{"OBJECT_NAME":"RADARSAT-2","OBJECT_ID":"2007-061A","EPOCH":"2026-03-09T23:01:05.689632","MEAN_MOTION":14.2996427,"ECCENTRICITY":0.00012561,"INCLINATION":98.582,"RA_OF_ASC_NODE":77.296,"ARG_OF_PERICENTER":84.478,"MEAN_ANOMALY":275.6546,"EPHEMERIS_TYPE":0,"CLASSIFICATION_TYPE":"U","NORAD_CAT_ID":32382,"ELEMENT_SET_NO":999,"REV_AT_EPOCH":95177,"BSTAR":-6.0240739e-5,"MEAN_MOTION_DOT":-1.99e-6,"MEAN_MOTION_DDOT":0},{"OBJECT_NAME":"CZ-4 DEB","OBJECT_ID":"1990-081CK","EPOCH":"2026-03-08T14:34:28.481376","MEAN_MOTION":14.41506829,"ECCENTRICITY":0.00667021,"INCLINATION":98.4785,"RA_OF_ASC_NODE":130.4109,"ARG_OF_PERICENTER":151.1137,"MEAN_ANOMALY":209.377,"EPHEMERIS_TYPE":0,"CLASSIFICATION_TYPE":"U","NORAD_CAT_ID":23254,"ELEMENT_SET_NO":999,"REV_AT_EPOCH":66316,"BSTAR":0.00040925698,"MEAN_MOTION_DOT":1.32e-5,"MEAN_MOTION_DDOT":0}]
